IRIDIUM 126             
1 42809U 17039G   25329.77341426  .00000389  00000+0  13166-3 0  9997
2 42809  86.3963  78.6780 0001953  92.0174 268.1245 14.34221373440799
IRIDIUM 124             
1 42810U 17039H   25329.63574876  .00000451  00000+0  12811-3 0  9997
2 42810  86.4510  15.4584 0002094  99.2080 260.9358 14.43278584445755
IRIDIUM 128             
1 42811U 17039J   25329.83391787  .00000462  00000+0  15777-3 0  9994
2 42811  86.3949 110.1862 0002100 104.0334 256.1096 14.34216064440833
IRIDIUM 121             
1 42812U 17039K   25329.72267341  .00000142  00000+0  43610-4 0  9994
2 42812  86.3963  78.7253 0002198  97.5117 262.6328 14.34217667440666
IRIDIUM 133             
1 42955U 17061A   25329.65632762  .00000124  00000+0  37125-4 0  9996
2 42955  86.3951 110.3732 0002044  96.0080 264.1348 14.34218411425603
IRIDIUM 100             
1 42956U 17061B   25329.78952103  .00000761  00000+0  26478-3 0  9990
2 42956  86.3949 110.2410 0001919  93.1615 266.9800 14.34218880425620
IRIDIUM 122             
1 42957U 17061C   25329.82757191  .00000236  00000+0  77246-4 0  9993
2 42957  86.3949 110.2246 0001978  94.4561 265.6861 14.34216611425631
IRIDIUM 129             
1 42958U 17061D   25329.78317907  .00000170  00000+0  53783-4 0  9993
2 42958  86.3950 110.3081 0002242  83.6966 276.4485 14.34217732425644
